COMMENT,ORIGINATOR,NORAD_CAT_ID,OBJECT_NAME,OBJECT_TYPE,CLASSIFICATION_TYPE,INTLDES,EPOCH,EPOCH_MICROSECONDS,MEAN_MOTION,ECCENTRICITY,INCLINATION,RA_OF_ASC_NODE,ARG_OF_PERICENTER,MEAN_ANOMALY,EPHEMERIS_TYPE,ELEMENT_SET_NO,REV_AT_EPOCH,BSTAR,MEAN_MOTION_DOT,MEAN_MOTION_DDOT,FILE,TLE_LINE0,TLE_LINE1,TLE_LINE2,OBJECT_ID,OBJECT_NUMBER,SEMIMAJOR_AXIS,PERIOD,APOGEE,PERIGEE,DECAYED
"GENERATED VIA SPACETRACK.ORG API","18 SPCS","55100","SPACEBEE-158","PAYLOAD","U","23001CV","2023-12-11 16:56:25","868544","15.28897664","0.0013987","97.4549","44.9918","99.1129","261.1694","0","999","5213","0.00063666","0.00017872","0","4133725","0 SPACEBEE-158","1 55100U 23001CV  23345.70585496  .00017872  00000-0  63666-3 0  9993","2 55100  97.4549  44.9918 0013987  99.1129 261.1694 15.28897664 52131","2023-001CV","55100","6857.243","94.186","488.700","469.517","0"
"GENERATED VIA SPACETRACK.ORG API","18 SPCS","55100","SPACEBEE-158","PAYLOAD","U","23001CV","2023-12-12 03:56:09","23712","15.28913014","0.0014021","97.4547","45.4506","97.6625","262.6208","0","999","5220","0.00059181","0.00016613","0","4134043","0 SPACEBEE-158","1 55100U 23001CV  23346.16399333  .00016613  00000-0  59181-3 0  9996","2 55100  97.4547  45.4506 0014021  97.6625 262.6208 15.28913014 52205","2023-001CV","55100","6857.197","94.185","488.677","469.448","0"
"GENERATED VIA SPACETRACK.ORG API","18 SPCS","55100","SPACEBEE-158","PAYLOAD","U","23001CV","2023-12-12 03:56:09","23712","15.28913014","0.0014021","97.4547","45.4506","97.6625","262.6208","0","999","5220","0.00059181","0.00016613","0","4134660","0 SPACEBEE-158","1 55100U 23001CV  23346.16399333  .00016613  00000-0  59181-3 0  9996","2 55100  97.4547  45.4506 0014021  97.6625 262.6208 15.28913014 52205","2023-001CV","55100","6857.197","94.185","488.677","469.448","0"
"GENERATED VIA SPACETRACK.ORG API","18 SPCS","55100","SPACEBEE-158","PAYLOAD","U","23001CV","2023-12-12 18:04:20","926272","15.28940989","0.001404","97.4543","46.0405","95.6947","264.5894","0","999","5229","0.00075053","0.0002112","0","4134943","0 SPACEBEE-158","1 55100U 23001CV  23346.75301998  .00021120  00000-0  75053-3 0  9996","2 55100  97.4543  46.0405 0014040  95.6947 264.5894 15.28940989 52294","2023-001CV","55100","6857.114","94.183","488.606","469.351","0"
"GENERATED VIA SPACETRACK.ORG API","18 SPCS","55100","SPACEBEE-158","PAYLOAD","U","23001CV","2023-12-13 03:29:48","582816","15.28956635","0.0014055","97.454","46.4338","94.5898","265.6947","0","999","5235","0.00081207","0.00022874","0","4135334","0 SPACEBEE-158","1 55100U 23001CV  23347.14570119  .00022874  00000-0  81207-3 0  9998","2 55100  97.4540  46.4338 0014055  94.5898 265.6947 15.28956635 52352","2023-001CV","55100","6857.067","94.182","488.570","469.294","0"
"GENERATED VIA SPACETRACK.ORG API","18 SPCS","55100","SPACEBEE-158","PAYLOAD","U","23001CV","2023-12-13 03:29:48","582816","15.28956635","0.0014055","97.454","46.4338","94.5898","265.6947","0","999","5235","0.00081207","0.00022874","0","4135433","0 SPACEBEE-158","1 55100U 23001CV  23347.14570119  .00022874  00000-0  81207-3 0  9998","2 55100  97.4540  46.4338 0014055  94.5898 265.6947 15.28956635 52352","2023-001CV","55100","6857.067","94.182","488.570","469.294","0"
"GENERATED VIA SPACETRACK.ORG API","18 SPCS","55100","SPACEBEE-158","PAYLOAD","U","23001CV","2023-12-14 03:03:25","821216","15.28997738","0.0014129","97.4556","47.4186","90.9875","269.2984","0","999","5250","0.00082637","0.0002331","0","4136178","0 SPACEBEE-158","1 55100U 23001CV  23348.12738219  .00023310  00000-0  82637-3 0  9998","2 55100  97.4556  47.4186 0014129  90.9875 269.2984 15.28997738 52505","2023-001CV","55100","6856.944","94.179","488.497","469.121","0"
"GENERATED VIA SPACETRACK.ORG API","18 SPCS","55100","SPACEBEE-158","PAYLOAD","U","23001CV","2023-12-14 15:37:20","391744","15.29027506","0.0013965","97.453","47.9408","89.5811","270.7029","0","999","5258","0.00074381","0.00020985","0","4136398","0 SPACEBEE-158","1 55100U 23001CV  23348.65093046  .00020985  00000-0  74381-3 0  9990","2 55100  97.4530  47.9408 0013965  89.5811 270.7029 15.29027506 52583","2023-001CV","55100","6856.855","94.178","488.296","469.145","0"
"GENERATED VIA SPACETRACK.ORG API","18 SPCS","55100","SPACEBEE-158","PAYLOAD","U","23001CV","2023-12-14 15:37:20","391744","15.29027506","0.0013965","97.453","47.9408","89.5811","270.7029","0","999","5258","0.00074381","0.00020985","0","4136513","0 SPACEBEE-158","1 55100U 23001CV  23348.65093046  .00020985  00000-0  74381-3 0  9990","2 55100  97.4530  47.9408 0013965  89.5811 270.7029 15.29027506 52583","2023-001CV","55100","6856.855","94.178","488.296","469.145","0"
"GENERATED VIA SPACETRACK.ORG API","18 SPCS","55100","SPACEBEE-158","PAYLOAD","U","23001CV","2023-12-15 02:36:59","995872","15.29050791","0.0013966","97.4529","48.3994","87.7292","272.5546","0","999","5265","0.00065811","0.00018565","0","4137031","0 SPACEBEE-158","1 55100U 23001CV  23349.10902773  .00018565  00000-0  65811-3 0  9996","2 55100  97.4529  48.3994 0013966  87.7292 272.5546 15.29050791 52654","2023-001CV","55100","6856.786","94.176","488.227","469.074","0"
"GENERATED VIA SPACETRACK.ORG API","18 SPCS","55100","SPACEBEE-158","PAYLOAD","U","23001CV","2023-12-15 16:45:07","66080","15.2908298","0.0014","97.4531","48.9895","86.1672","274.1168","0","999","5274","0.00067916","0.00019182","0","4137163","0 SPACEBEE-158","1 55100U 23001CV  23349.69799845  .00019182  00000-0  67916-3 0  9998","2 55100  97.4531  48.9895 0014000  86.1672 274.1168 15.29082980 52741","2023-001CV","55100","6856.689","94.174","488.154","468.955","0"
"GENERATED VIA SPACETRACK.ORG API","18 SPCS","55100","SPACEBEE-158","PAYLOAD","U","23001CV","2023-12-15 16:45:07","66080","15.2908298","0.0014","97.4531","48.9895","86.1672","274.1168","0","999","5274","0.00067916","0.00019182","0","4137270","0 SPACEBEE-158","1 55100U 23001CV  23349.69799845  .00019182  00000-0  67916-3 0  9998","2 55100  97.4531  48.9895 0014000  86.1672 274.1168 15.29082980 52741","2023-001CV","55100","6856.689","94.174","488.154","468.955","0"
"GENERATED VIA SPACETRACK.ORG API","18 SPCS","55100","SPACEBEE-158","PAYLOAD","U","23001CV","2023-12-16 03:44:45","148704","15.29109712","0.0013962","97.4528","49.4481","84.6677","275.6155","0","999","5281","0.00080445","0.00022764","0","4137777","0 SPACEBEE-158","1 55100U 23001CV  23350.15607811  .00022764  00000-0  80445-3 0  9994","2 55100  97.4528  49.4481 0013962  84.6677 275.6155 15.29109712 52811","2023-001CV","55100","6856.609","94.172","488.048","468.901","0"
"GENERATED VIA SPACETRACK.ORG API","18 SPCS","55100","SPACEBEE-158","PAYLOAD","U","23001CV","2023-12-16 03:44:45","148704","15.29109712","0.0013962","97.4528","49.4481","84.6677","275.6155","0","999","5281","0.00080445","0.00022764","0","4137834","0 SPACEBEE-158","1 55100U 23001CV  23350.15607811  .00022764  00000-0  80445-3 0  9994","2 55100  97.4528  49.4481 0013962  84.6677 275.6155 15.29109712 52811","2023-001CV","55100","6856.609","94.172","488.048","468.901","0"
"GENERATED VIA SPACETRACK.ORG API","18 SPCS","55100","SPACEBEE-158","PAYLOAD","U","23001CV","2023-12-16 17:52:50","288736","15.29145561","0.0013946","97.4526","50.0376","83.2798","277.0028","0","999","5290","0.0009343","0.00026493","0","4138106","0 SPACEBEE-158","1 55100U 23001CV  23350.74502649  .00026493  00000-0  93430-3 0  9993","2 55100  97.4526  50.0376 0013946  83.2798 277.0028 15.29145561 52908","2023-001CV","55100","6856.502","94.170","487.929","468.805","0"
"GENERATED VIA SPACETRACK.ORG API","18 SPCS","55100","SPACEBEE-158","PAYLOAD","U","23001CV","2023-12-17 03:18:13","142304","15.29164772","0.0013919","97.4526","50.431","81.7878","278.494","0","999","5296","0.0008516","0.00024148","0","4138245","0 SPACEBEE-158","1 55100U 23001CV  23351.13765211  .00024148  00000-0  85160-3 0  9999","2 55100  97.4526  50.4310 0013919  81.7878 278.4940 15.29164772 52961","2023-001CV","55100","6856.445","94.169","487.853","468.766","0"
"GENERATED VIA SPACETRACK.ORG API","18 SPCS","55100","SPACEBEE-158","PAYLOAD","U","23001CV","2023-12-17 03:18:13","142304","15.29164772","0.0013919","97.4526","50.431","81.7878","278.494","0","999","5296","0.0008516","0.00024148","0","4138654","0 SPACEBEE-158","1 55100U 23001CV  23351.13765211  .00024148  00000-0  85160-3 0  9999","2 55100  97.4526  50.4310 0013919  81.7878 278.4940 15.29164772 52961","2023-001CV","55100","6856.445","94.169","487.853","468.766","0"
"GENERATED VIA SPACETRACK.ORG API","18 SPCS","55100","SPACEBEE-158","PAYLOAD","U","23001CV","2023-12-17 15:52:02","788896","15.29202499","0.0013878","97.4526","50.955","80.4191","279.8616","0","999","5304","0.0011625","0.00033067","0","4138781","0 SPACEBEE-158","1 55100U 23001CV  23351.66114339  .00033067  00000-0  11625-2 0  9990","2 55100  97.4526  50.9550 0013878  80.4191 279.8616 15.29202499 53044","2023-001CV","55100","6856.332","94.167","487.712","468.682","0"
"GENERATED VIA SPACETRACK.ORG API","18 SPCS","55100","SPACEBEE-158","PAYLOAD","U","23001CV","2023-12-17 15:52:02","788896","15.29202499","0.0013878","97.4526","50.955","80.4191","279.8616","0","999","5304","0.0011625","0.00033067","0","4138912","0 SPACEBEE-158","1 55100U 23001CV  23351.66114339  .00033067  00000-0  11625-2 0  9990","2 55100  97.4526  50.9550 0013878  80.4191 279.8616 15.29202499 53044","2023-001CV","55100","6856.332","94.167","487.712","468.682","0"
"GENERATED VIA SPACETRACK.ORG API","18 SPCS","55100","SPACEBEE-158","PAYLOAD","U","23001CV","2023-12-18 02:51:37","714464","15.29240693","0.0013889","97.4527","51.4141","78.7295","281.5505","0","999","5311","0.0013371","0.00038115","0","4139271","0 SPACEBEE-158","1 55100U 23001CV  23352.11918651  .00038115  00000-0  13371-2 0  9999","2 55100  97.4527  51.4141 0013889  78.7295 281.5505 15.29240693 53117","2023-001CV","55100","6856.218","94.164","487.605","468.560","0"
